EUTELSAT HOTBIRD 13B    
1 29270U 06032A   21264.37271674  .00000069  00000-0  00000-0 0  9998
2 29270   0.0755 351.9484 0001024 202.1669 313.5463  1.00269148 29968
JCSAT-3A                
1 29272U 06033A   21264.54939664 -.00000361  00000-0  00000-0 0  9996
2 29272   0.0183 230.9084 0002630 318.0796 137.4416  1.00272328 30393
SYRACUSE 3B             
1 29273U 06033B   21264.39354670 -.00000060  00000-0  00000-0 0  9994
2 29273   0.0120 224.4738 0004731 310.9835 321.5009  1.00274970 55361
KOREASAT 5 (MUGUNGWHA 5)
1 29349U 06034A   21264.54643123 -.00000375  00000-0  00000-0 0  9999
2 29349   0.0101 177.1429 0001950  26.4341 106.8342  1.00272406 23974
DIRECTV 9S              
1 29494U 06043A   21264.57645771 -.00000129  00000-0  00000-0 0  9991
2 29494   0.0163 194.3513 0003254 353.4215 279.2216  1.00272094 34037
OPTUS D1                
1 29495U 06043B   21264.50700174 -.00000128  00000-0  00000-0 0  9993
2 29495   0.0204 174.4714 0003617   8.0358 160.6034  1.00269882 54775
XM-4 (BLUES)            
1 29520U 06049A   21264.47670256 -.00000040  00000-0  00000-0 0  9994
2 29520   0.0532 288.3052 0000283 260.7786 227.8734  1.00271999 34128
BADR-4                  
1 29526U 06051A   21264.23729869  .00000127  00000-0  00000-0 0  9997
2 29526   0.0581 339.3037 0004021 247.5238 244.9187  1.00271364 33933
WILDBLUE-1              
1 29643U 06054A   21264.48018154 -.00000065  00000-0  00000-0 0  9997
2 29643   0.0261 255.1732 0001750 287.7353 239.3469  1.00270924 36446
AMC-18                  
1 29644U 06054B   21264.51086049 -.00000232  00000-0  00000-0 0  9996
2 29644   0.0184 188.4274 0003203   9.4514 263.6297  1.00268069 54214
INSAT-4B                
1 30793U 07007A   21264.52410552 -.00000204  00000-0  00000+0 0  9991
2 30793   1.5556  92.6205 0005697 130.7037  51.5097  1.00271255 53219
SKYNET 5A               
1 30794U 07007B   21264.53521687 -.00000287  00000-0  00000-0 0  9997
2 30794   1.6722  89.7825 0003525  96.8653 101.8868  1.00272766 53353
ANIK F3                 
1 31102U 07009A   21264.56162764 -.00000017  00000-0  00000-0 0  9994
2 31102   0.0119 140.1233 0001780  37.7866 266.2116  1.00272920 29218
ASTRA 1L                
1 31306U 07016A   21264.52767934  .00000103  00000-0  00000-0 0  9999
2 31306   0.0612 313.7178 0002989 277.4601 338.6064  1.00274503 27684
GALAXY 17 (G-17)        
1 31307U 07016B   21264.50557358 -.00000191  00000-0  00000+0 0  9992
2 31307   0.0247 179.3345 0003249   8.3625 263.9073  1.00268972 52735
ZHONGXING-6B            
1 31800U 07031A   21264.57202181 -.00000378  00000-0  00000-0 0  9993
2 31800   0.0105 169.4482 0003494   8.5891 144.0478  1.00269204 52082
DIRECTV 10              
1 31862U 07032A   21264.57538508 -.00000120  00000-0  00000-0 0  9992
2 31862   0.0489 339.5520 0000196 215.1589 270.3092  1.00272550 28260
SPACEWAY 3              
1 32018U 07036A   21264.50285421 -.00000168  00000-0  00000-0 0  9998
2 32018   0.0170 354.0821 0000124   2.5193  90.0716  1.00270501 29206
BSAT-3A                 
1 32019U 07036B   21264.57202181 -.00000367  00000-0  00000-0 0  9999
2 32019   0.0468 232.5690 0004040 338.0913 105.7850  1.00272185 33173
OPTUS D2                
1 32252U 07044A   21264.50019593 -.00000200  00000-0  00000-0 0  9999
2 32252   0.0186 130.0775 0003767  47.7115 154.8830  1.00272606 51225
INTELSAT 11 (IS-11)     
1 32253U 07044B   21264.37173333 -.00000285  00000-0  00000-0 0  9991
2 32253   0.0183 168.9782 0002030  33.0240 249.3047  1.00271719 51145
WGS F1 (USA 195)        
1 32258U 07046A   21264.37827081  .00000024  00000-0  00000-0 0  9994
2 32258   0.0188 121.7375 0001252  90.0080 290.9080  1.00272991 35032
STAR ONE C1             
1 32293U 07056A   21264.51084625 -.00000293  00000-0  00000-0 0  9998
2 32293   0.2957  96.3241 0003028  89.3423 293.8253  1.00274501 34437
SKYNET 5B               
1 32294U 07056B   21264.36715987  .00000125  00000-0  00000-0 0  9997
2 32294   0.8518  90.2167 0003603  89.1323 338.3998  1.00270489 50859
ASTRA 4A (SIRIUS 4)     
1 32299U 07057A   21264.30945958  .00000015  00000-0  00000-0 0  9998
2 32299   0.0150 163.1047 0002763  19.5294 293.9814  1.00271192 34335
HORIZONS 2              
1 32388U 07063B   21264.52410552 -.00000199  00000-0  00000-0 0  9999
2 32388   0.0211 162.2758 0002673  25.8375  86.0206  1.00270122 50472
THURAYA-3               
1 32404U 08001A   21264.39990477 -.00000316  00000-0  00000-0 0  9996
2 32404   3.8889  18.4159 0003976 121.6312 102.9067  1.00270857 50145
EXPRESS-AM33            
1 32478U 08003A   21264.39910406 -.00000105  00000-0  00000-0 0  9999
2 32478   0.3827  96.0664 0000148 183.7861 213.3608  1.00270468 36396
THOR 5                  
1 32487U 08006A   21264.39354670 -.00000026  00000-0  00000-0 0  9999
2 32487   0.0440 258.8539 0002580 289.3125 313.2479  1.00272785 49968
AMC-14                  
1 32708U 08011A   21264.04285546  .00000073  00000-0  00000-0 0  9999
2 32708  21.6710  41.5406 0035339   7.9584 344.0635  1.00273319 50809
DIRECTV 11              
1 32729U 08013A   21264.57766941 -.00000142  00000-0  00000-0 0  9993
2 32729   0.0173 352.1770 0000255 247.3995 229.8648  1.00271344 28250
ICO G1                  
1 32763U 08016A   21264.50484701 -.00000185  00000-0  00000-0 0  9995
2 32763   3.8198  21.6890 0002169 160.1543 267.6504  1.00271022 49206
VINASAT-1               
1 32767U 08018A   21264.55018160 -.00000345  00000-0  00000-0 0  9996
2 32767   0.0412 297.4256 0002096 260.3494 132.8798  1.00271331 49250
STAR ONE C2             
1 32768U 08018B   21264.47124733 -.00000282  00000-0  00000-0 0  9992
2 32768   0.0177 154.0726 0003058  17.1056 289.0391  1.00272677 49326
TIANLIAN 1-01           
1 32779U 08019A   21264.39624161 -.00000153  00000-0  00000-0 0  9993
2 32779   5.1323  70.2672 0027034 271.5520 241.3421  1.00270554 49123
AMOS-3                  
1 32794U 08022A   21264.39354670 -.00000052  00000-0  00000-0 0  9997
2 32794   0.0129 194.5494 0003037 326.6995 336.7803  1.00272017 65010
GALAXY 18 (G-18)        
1 32951U 08024A   21264.55823668  .00000009  00000-0  00000-0 0  9991
2 32951   0.0199 166.1077 0003303  23.4963 249.0053  1.00272918 28503
CHINASAT 9 (ZX 9)       
1 33051U 08028A   21264.54909480 -.00000264  00000-0  00000+0 0  9996
2 33051   0.0121 202.2171 0004018 334.2535 114.0716  1.00272869 48660
SKYNET 5C               
1 33055U 08030A   21264.39910406 -.00000156  00000-0  00000-0 0  9997
2 33055   0.0804 331.2907 0005935 222.1512 292.9123  1.00272195 48616
TURKSAT 3A              
1 33056U 08030B   21264.53221468  .00000129  00000-0  00000-0 0  9996
2 33056   0.0423  87.6730 0004536  72.5786  73.9596  1.00274146 35015
INTELSAT 25 (IS-25)     
1 33153U 08034A   21264.37400100 -.00000241  00000-0  00000-0 0  9998
2 33153   0.0114 193.3255 0002963 344.1204 286.1670  1.00272014 48345
BADR-6                  
1 33154U 08034B   21264.23729869  .00000127  00000-0  00000-0 0  9992
2 33154   0.0601  36.2615 0002948 140.0161 295.4973  1.00273994 48415
ECHOSTAR 11             
1 33207U 08035A   21264.56946177 -.00000072  00000-0  00000-0 0  9991
2 33207   0.0164 189.8266 0002680 355.2431 270.5784  1.00269857 33880
SUPERBIRD-C2            
1 33274U 08038A   21264.55253649 -.00000268  00000-0  00000-0 0  9999
2 33274   0.0224 131.8417 0001728  74.4431 137.2315  1.00270245 88385
AMC-21                  
1 33275U 08038B   21264.55711194  .00000020  00000-0  00000-0 0  9999
2 33275   0.0146 184.2506 0002660   6.5340 245.5193  1.00271369 48146
INMARSAT 4-F3           
1 33278U 08039A   21264.57852139 -.00000154  00000-0  00000-0 0  9999
2 33278   3.2309  16.9736 0002988 170.9147 283.0566  1.00272593 29213
NIMIQ 4                 
1 33373U 08044A   21264.51172792 -.00000237  00000-0  00000-0 0  9997
2 33373   0.0214 124.7105 0001949  57.9164 280.2093  1.00270572 47642
GALAXY 19 (G-19)        
1 33376U 08045A   21264.57992115 -.00000156  00000-0  00000-0 0  9996
2 33376   0.0178 241.8398 0003057 303.6309 286.9865  1.00274624 47566
ASTRA 1M                
1 33436U 08057A   21264.52767934  .00000104  00000-0  00000-0 0  9992
2 33436   0.0110 187.9790 0005088 335.2716  46.5433  1.00275331 28380
CIEL-2                  
1 33453U 08063A   21264.55371461  .00000042  00000-0  00000-0 0  9998
2 33453   0.0203 222.5085 0003016 325.7941 242.8264  1.00272871 46792
EUTELSAT HOTBIRD 13C    
1 33459U 08065A   21264.31111674  .00000070  00000-0  00000-0 0  9999
2 33459   0.0188  52.8055 0004470 112.9963 319.6109  1.00273132 30005
EUTELSAT 48D            
1 33460U 08065B   21264.39910406 -.00000117  00000-0  00000-0 0  9992
2 33460   0.7844  95.9816 0003397  83.1610 312.5146  1.00272171 46610
FENGYUN 2E              
1 33463U 08066A   21264.54111093 -.00000216  00000-0  00000-0 0  9998
2 33463   5.3149  66.7312 0002776 334.9774 240.3245  1.00271070 46746
EXPRESS-AM44            
1 33595U 09007A   21264.39910405 -.00000106  00000-0  00000-0 0  9995
2 33595   0.0268 303.6081 0000690 326.0431 223.5118  1.00271651 46216
NSS-9                   
1 33749U 09008A   21264.59857706  .00000055  00000-0  00000-0 0  9995
2 33749   0.0146 154.8542 0002370  27.8584 216.5199  1.00269546 46189
EUTELSAT 33E            
1 33750U 09008B   21264.53047031  .00000139  00000-0  00000-0 0  9996
2 33750   0.0785  47.8520 0003908 127.3623  49.4443  1.00272505 46101
TELSTAR 11N             
1 34111U 09009A   21264.33782235 -.00000268  00000-0  00000-0 0  9993
2 34111   0.0251 184.3077 0002245 348.5358 271.6452  1.00267376 28884
EUTELSAT 10A            
1 34710U 09016A   21264.37271674  .00000051  00000-0  00000-0 0  9999
2 34710   0.0668   9.4385 0005382 168.1017 327.0978  1.00271350 23918
WGS F2 (USA 204)        
1 34713U 09017A   21264.53535453  .00000051  00000-0  00000-0 0  9999
2 34713   0.0254 110.7784 0000393 107.7248  32.3858  1.00272437 28277
